NORAD_CAT_ID,OBJECT_NAME,OBJECT_TYPE,EPOCH,MEAN_MOTION,ECCENTRICITY,INCLINATION,RA_OF_ASC_NODE,ARG_OF_PERICENTER,MEAN_ANOMALY,BSTAR,MEAN_MOTION_DOT,MEAN_MOTION_DDOT,TLE_LINE0,TLE_LINE1,TLE_LINE2,SEMIMAJOR_AXIS,PERIOD,APOGEE,PERIGEE,DECAYED
49176.0,STARLINK-3069,PAYLOAD,2024-07-24 17:50:04,14.98321425,0.0002934,69.9993,309.4806,258.8898,101.1931,-4.9851e-05,-6.88e-06,0.0,0 STARLINK-3069,1 49176U 21082AY  24206.74310424 -.00000688  00000-0 -49851-4 0  9994,2 49176  69.9993 309.4806 0002934 258.8898 101.1931 14.98321425158144,6950.219,96.108,574.124,570.045,0.0
49176.0,STARLINK-3069,PAYLOAD,2024-07-25 06:39:07,14.98336777,0.0002938,69.9992,308.1345,257.067,103.0161,-4.5721e-05,-6.39e-06,0.0,0 STARLINK-3069,1 49176U 21082AY  24207.27717433 -.00000639  00000-0 -45721-4 0  9992,2 49176  69.9992 308.1345 0002938 257.0670 103.0161 14.98336777158221,6950.172,96.107,574.079,569.995,0.0
49176.0,STARLINK-3069,PAYLOAD,2024-07-25 09:51:23,14.98336245,0.0002971,69.9991,307.7975,256.9773,103.1054,-4.8622e-05,-6.73e-06,0.0,0 STARLINK-3069,1 49176U 21082AY  24207.41069412 -.00000673  00000-0 -48622-4 0  9996,2 49176  69.9991 307.7975 0002971 256.9773 103.1054 14.98336245158247,6950.174,96.107,574.103,569.974,0.0
49176.0,STARLINK-3069,PAYLOAD,2024-07-26 09:53:24,14.98330546,0.0003137,69.9998,305.2745,264.9807,95.0993,9.0036e-05,9.81e-06,0.0,0 STARLINK-3069,1 49176U 21082AY  24208.41209252  .00000981  00000-0  90036-4 0  9991,2 49176  69.9998 305.2745 0003137 264.9807  95.0993 14.98330546158399,6950.191,96.107,574.236,569.876,0.0
49176.0,STARLINK-3069,PAYLOAD,2024-07-27 06:43:09,14.98330058,0.0003431,69.9992,303.0846,274.671,85.4057,3.5624e-06,-5.1e-07,0.0,0 STARLINK-3069,1 49176U 21082AY  24209.27997610 -.00000051  00000-0  35624-5 0  9990,2 49176  69.9992 303.0846 0003431 274.6710  85.4057 14.98330058158526,6950.193,96.107,574.442,569.673,0.0
49176.0,STARLINK-3069,PAYLOAD,2024-07-27 09:55:26,14.98327781,0.0003647,69.9983,302.7467,277.7667,82.3078,-2.4991e-05,-3.91e-06,0.0,0 STARLINK-3069,1 49176U 21082AY  24209.41349834 -.00000391  00000-0 -24991-4 0  9997,2 49176  69.9983 302.7467 0003647 277.7667  82.3078 14.98327781158545,6950.2,96.107,574.599,569.53,0.0
49176.0,STARLINK-3069,PAYLOAD,2024-07-27 14:43:50,14.98328267,0.0003247,69.9996,302.2451,266.9512,93.1276,-1.2918e-05,-2.47e-06,0.0,0 STARLINK-3069,1 49176U 21082AY  24209.61377737 -.00000247  00000-0 -12918-4 0  9998,2 49176  69.9996 302.2451 0003247 266.9512  93.1276 14.98328267158575,6950.198,96.107,574.32,569.807,0.0
49176.0,STARLINK-3069,PAYLOAD,2024-07-28 13:09:42,14.98336442,0.000324,70.0,299.8895,265.2242,94.8547,5.2204e-05,5.3e-06,0.0,0 STARLINK-3069,1 49176U 21082AY  24210.54840908  .00000530  00000-0  52204-4 0  9992,2 49176  70.0000 299.8895 0003240 265.2242  94.8547 14.98336442158711,6950.173,96.107,574.29,569.786,0.0
49176.0,STARLINK-3069,PAYLOAD,2024-07-28 19:34:14,14.98339053,0.0003181,69.9998,299.2157,264.7326,95.347,4.1435e-05,4.02e-06,0.0,0 STARLINK-3069,1 49176U 21082AY  24210.81544640  .00000402  00000-0  41435-4 0  9998,2 49176  69.9998 299.2157 0003181 264.7326  95.3470 14.98339053158756,6950.165,96.106,574.241,569.819,0.0
49176.0,STARLINK-3069,PAYLOAD,2024-07-28 22:46:31,14.98320194,0.0003687,69.9997,298.8793,267.3871,92.6866,-4.3759e-05,-6.15e-06,0.0,0 STARLINK-3069,1 49176U 21082AY  24210.94897801 -.00000615  00000-0 -43759-4 0  9991,2 49176  69.9997 298.8793 0003687 267.3871  92.6866 14.98320194158778,6950.223,96.108,574.651,569.526,0.0
49176.0,STARLINK-3069,PAYLOAD,2024-07-29 09:59:28,14.98323732,0.0003392,69.9996,297.7007,269.0404,91.0366,-3.3784e-06,-1.33e-06,0.0,0 STARLINK-3069,1 49176U 21082AY  24211.41629796 -.00000133  00000-0 -33784-5 0  9993,2 49176  69.9996 297.7007 0003392 269.0404  91.0366 14.98323732158844,6950.212,96.107,574.435,569.72,0.0
49176.0,STARLINK-3069,PAYLOAD,2024-07-29 16:23:59,14.98329777,0.0003096,70.0,297.0278,267.3362,92.7442,6.1722e-05,6.44e-06,0.0,0 STARLINK-3069,1 49176U 21082AY  24211.68333282  .00000644  00000-0  61722-4 0  9991,2 49176  70.0000 297.0278 0003096 267.3362  92.7442 14.98329777158883,6950.194,96.107,574.21,569.907,0.0
49176.0,STARLINK-3069,PAYLOAD,2024-07-30 11:37:36,14.98330777,0.0002993,70.0001,295.0076,265.0106,95.0711,4.1444e-06,-4.4e-07,0.0,0 STARLINK-3069,1 49176U 21082AY  24212.48445350 -.00000044  00000-0  41444-5 0  9995,2 49176  70.0001 295.0076 0002993 265.0106  95.0711 14.98330777159006,6950.19,96.107,574.136,569.975,0.0
49176.0,STARLINK-3069,PAYLOAD,2024-07-31 14:51:53,14.9833412,0.000309,70.0001,292.1468,268.6921,91.3884,3.8729e-05,3.69e-06,0.0,0 STARLINK-3069,1 49176U 21082AY  24213.61936831  .00000369  00000-0  38729-4 0  9990,2 49176  70.0001 292.1468 0003090 268.6921  91.3884 14.98334120159176,6950.18,96.107,574.193,569.898,0.0
49176.0,STARLINK-3069,PAYLOAD,2024-08-01 05:17:06,14.9832553,0.0003294,69.9999,290.6311,268.5785,91.4996,8.5096e-05,9.22e-06,0.0,0 STARLINK-3069,1 49176U 21082AY  24214.22021113  .00000922  00000-0  85096-4 0  9990,2 49176  69.9999 290.6311 0003294 268.5785  91.4996 14.98325530159262,6950.207,96.107,574.361,569.782,0.0
49176.0,STARLINK-3069,PAYLOAD,2024-08-01 11:41:38,14.9832826,0.0003156,69.9997,289.9579,268.5857,91.494,4.8638e-05,4.87e-06,0.0,0 STARLINK-3069,1 49176U 21082AY  24214.48725092  .00000487  00000-0  48638-4 0  9992,2 49176  69.9997 289.9579 0003156 268.5857  91.4940 14.98328260159301,6950.198,96.107,574.257,569.87,0.0
49176.0,STARLINK-3069,PAYLOAD,2024-08-02 05:19:07,14.98330538,0.0003148,69.9995,288.1064,268.3662,91.7137,1.5562e-06,-7.4e-07,0.0,0 STARLINK-3069,1 49176U 21082AY  24215.22161000 -.00000074  00000-0  15562-5 0  9992,2 49176  69.9995 288.1064 0003148 268.3662  91.7137 14.98330538159416,6950.191,96.107,574.244,569.868,0.0
49176.0,STARLINK-3069,PAYLOAD,2024-08-02 14:55:55,14.98329318,0.0003097,69.9997,287.0974,267.1274,92.953,-4.2686e-05,-6.02e-06,0.0,0 STARLINK-3069,1 49176U 21082AY  24215.62217246 -.00000602  00000-0 -42686-4 0  9994,2 49176  69.9997 287.0974 0003097 267.1274  92.9530 14.98329318159475,6950.195,96.107,574.212,569.908,0.0
49176.0,STARLINK-3069,PAYLOAD,2024-08-03 05:21:08,14.98327369,0.0003117,69.9996,285.5821,272.064,88.0162,4.3097e-05,4.21e-06,0.0,0 STARLINK-3069,1 49176U 21082AY  24216.22301184  .00000421  00000-0  43097-4 0  9990,2 49176  69.9996 285.5821 0003117 272.0640  88.0162 14.98327369159564,6950.201,96.107,574.232,569.9,0.0
49176.0,STARLINK-3069,PAYLOAD,2024-08-03 14:57:56,14.98334595,0.0003101,69.9997,284.572,272.3566,87.7238,7.4283e-05,7.94e-06,0.0,0 STARLINK-3069,1 49176U 21082AY  24216.62356646  .00000794  00000-0  74283-4 0  9991,2 49176  69.9997 284.5720 0003101 272.3566  87.7238 14.98334595159621,6950.179,96.107,574.199,569.888,0.0
49176.0,STARLINK-3069,PAYLOAD,2024-08-03 21:22:28,14.98330373,0.0003081,69.9998,283.8982,274.3333,85.7474,3.2432e-05,2.94e-06,0.0,0 STARLINK-3069,1 49176U 21082AY  24216.89060988  .00000294  00000-0  32432-4 0  9996,2 49176  69.9998 283.8982 0003081 274.3333  85.7474 14.98330373159669,6950.192,96.107,574.198,569.915,0.0
49176.0,STARLINK-3069,PAYLOAD,2024-08-04 05:23:09,14.98326217,0.0003001,70.0,283.057,273.5045,86.577,6.4707e-05,6.79e-06,0.0,0 STARLINK-3069,1 49176U 21082AY  24217.22441187  .00000679  00000-0  64707-4 0  9995,2 49176  70.0000 283.0570 0003001 273.5045  86.5770 14.98326217159710,6950.205,96.107,574.155,569.984,0.0
49176.0,STARLINK-3069,PAYLOAD,2024-08-04 13:23:49,14.98330802,0.0002914,70.0001,282.2155,272.8675,87.215,0.00011484,1.278e-05,0.0,0 STARLINK-3069,1 49176U 21082AY  24217.55820813  .00001278  00000-0  11484-3 0  9997,2 49176  70.0001 282.2155 0002914 272.8675  87.2150 14.98330802159764,6950.19,96.107,574.081,570.03,0.0
49176.0,STARLINK-3069,PAYLOAD,2024-08-04 21:24:29,14.98332595,0.000291,70.0001,281.3738,272.4455,87.6371,7.8483e-05,8.44e-06,0.0,0 STARLINK-3069,1 49176U 21082AY  24217.89200747  .00000844  00000-0  78483-4 0  9993,2 49176  70.0001 281.3738 0002910 272.4455  87.6371 14.98332595159815,6950.185,96.107,574.072,570.027,0.0
49176.0,STARLINK-3069,PAYLOAD,2024-08-05 05:25:09,14.98334786,0.0003093,69.9992,280.5319,268.7859,91.2946,3.3374e-05,3.05e-06,0.0,0 STARLINK-3069,1 49176U 21082AY  24218.22580583  .00000305  00000-0  33374-4 0  9992,2 49176  69.9992 280.5319 0003093 268.7859  91.2946 14.98334786159864,6950.178,96.107,574.193,569.893,0.0
49176.0,STARLINK-3069,PAYLOAD,2024-08-05 13:25:49,14.98337967,0.0002942,69.9998,279.6903,269.5651,90.5171,4.8062e-05,4.81e-06,0.0,0 STARLINK-3069,1 49176U 21082AY  24218.55960207  .00000481  00000-0  48062-4 0  9998,2 49176  69.9998 279.6903 0002942 269.5651  90.5171 14.98337967159911,6950.168,96.106,574.078,569.989,0.0
49176.0,STARLINK-3069,PAYLOAD,2024-08-06 05:27:11,14.98323131,0.0002643,70.0009,278.0075,261.7345,98.3514,-7.948e-05,-1.041e-05,0.0,0 STARLINK-3069,1 49176U 21082AY  24219.22721509 -.00001041  00000-0 -79480-4 0  9996,2 49176  70.0009 278.0075 0002643 261.7345  98.3514 14.98323131160010,6950.214,96.107,573.916,570.242,0.0
49176.0,STARLINK-3069,PAYLOAD,2024-08-06 13:27:52,14.98319079,0.0003156,69.9993,277.1649,273.591,86.4888,-0.00012304,-1.56e-05,0.0,0 STARLINK-3069,1 49176U 21082AY  24219.56102083 -.00001560  00000-0 -12304-3 0  9990,2 49176  69.9993 277.1649 0003156 273.5910  86.4888 14.98319079160068,6950.227,96.108,574.285,569.898,0.0
49176.0,STARLINK-3069,PAYLOAD,2024-08-07 11:53:44,14.98334958,0.0003304,69.9987,274.808,272.862,87.2161,2.5852e-05,2.15e-06,0.0,0 STARLINK-3069,1 49176U 21082AY  24220.49564884  .00000215  00000-0  25852-4 0  9992,2 49176  69.9987 274.8080 0003304 272.8620  87.2161 14.98334958160201,6950.178,96.107,574.339,569.746,0.0
49176.0,STARLINK-3069,PAYLOAD,2024-08-08 13:31:52,14.98335946,0.0003283,69.9988,272.115,274.1196,85.9588,0.00028327,3.289e-05,0.0,0 STARLINK-3069,1 49176U 21082AY  24221.56380129  .00003289  00000-0  28327-3 0  9992,2 49176  69.9988 272.1150 0003283 274.1196  85.9588 14.98335946160363,6950.175,96.107,574.321,569.758,0.0
